OBJECT_NAME,OBJECT_ID,EPOCH,MEAN_MOTION,ECCENTRICITY,INCLINATION,RA_OF_ASC_NODE,ARG_OF_PERICENTER,MEAN_ANOMALY,EPHEMERIS_TYPE,CLASSIFICATION_TYPE,NORAD_CAT_ID,ELEMENT_SET_NO,REV_AT_EPOCH,BSTAR,MEAN_MOTION_DOT,MEAN_MOTION_DDOT
ELEKTRO-L 3,2019-095A,2026-07-06T20:59:53.381760,1.00272085,.0001561,0.3045,82.0815,13.1830,220.5522,0,U,44903,999,2390,0,-.82E-6,0
SHIJIAN-20 (SJ-20),2019-097A,2026-07-06T20:51:01.732320,1.00277456,.0015624,4.9654,74.8234,58.4499,149.2296,0,U,44910,999,2389,0,.147E-5,0
TJS-5,2020-002A,2026-07-06T21:08:52.521216,1.00273081,.0008101,0.0418,68.7420,346.7653,294.0821,0,U,44978,999,2390,0,-.327E-5,0
GSAT-30,2020-005A,2026-07-06T20:47:13.464384,1.00270423,.0003379,0.0269,94.1006,357.1251,228.4437,0,U,45026,999,2370,0,-.15E-5,0
EUTELSAT KONNECT,2020-005B,2026-07-06T13:49:36.569280,1.00269005,.0001974,0.0680,93.7943,136.3863,268.9939,0,U,45027,999,2453,0,.64E-6,0
JCSAT-17,2020-013A,2026-07-06T17:51:43.549056,1.00270616,.0003063,5.3917,357.0380,122.9216,208.7085,0,U,45245,999,2342,0,-.303E-5,0
GEO-KOMPSAT-2B,2020-013B,2026-07-06T17:49:28.764192,1.00271115,.0000756,0.0428,212.9313,24.0071,83.4173,0,U,45246,999,2347,0,-.329E-5,0
BEIDOU-3 G2,2020-017A,2026-07-06T21:01:08.262912,1.00270817,.0002459,2.9014,47.6135,51.8682,220.7363,0,U,45344,999,2345,0,-.127E-5,0
AEHF-6 (USA 298),2020-022B,2026-07-06T17:47:54.730752,1.00275151,.0041965,2.5073,301.3648,15.8126,12.2410,0,U,45465,999,2321,0,-.282E-5,0
BEIDOU-3 G3,2020-040A,2026-07-06T19:27:06.887232,1.00269061,.000217,2.4924,67.4782,334.6376,284.9927,0,U,45807,999,2226,0,-.34E-5,0
APSTAR-6D,2020-045A,2026-07-06T17:51:13.595040,1.00272245,.0002053,0.0389,87.2015,11.0135,228.3677,0,U,45863,999,2205,0,-.302E-5,0
KOREASAT 116,2020-048A,2026-07-06T19:28:44.229792,1.00271607,.0000954,0.0092,339.7503,120.6933,232.7594,0,U,45920,999,2183,0,-.347E-5,0
EXPRESS 103,2020-053A,2026-07-06T21:05:45.320064,1.00273472,.0001666,0.0342,258.6784,221.0879,218.0297,0,U,45985,999,2184,0,-.266E-5,0
EXPRESS 80,2020-053B,2026-07-05T23:44:11.347872,1.00270355,.0001685,0.0185,1.2410,202.2448,156.5065,0,U,45986,999,2182,0,0,0
BSAT-4B,2020-056A,2026-07-06T19:57:29.763936,1.00267324,.0004194,0.0115,162.8355,328.7383,202.4326,0,U,46112,999,2158,0,0,0
MEV-2,2020-056B,2026-07-06T08:39:25.430400,1.00274350,.0000467,0.0428,259.5941,299.9477,213.6568,0,U,46113,999,8090,0,.4E-7,0
GALAXY 30 (G-30),2020-056C,2026-07-06T18:19:48.355968,1.00270907,.0002186,0.0206,38.7570,67.2773,328.6685,0,U,46114,999,2148,0,.52E-6,0
GAOFEN-13 01,2020-071A,2026-07-06T19:29:29.158656,1.00270647,.0045007,0.4455,86.3090,120.0621,129.0755,0,U,46610,999,2111,0,-.348E-5,0
TIANTONG-1 2,2020-082A,2026-07-06T21:13:52.040640,1.00271448,.0001553,0.7675,330.3134,130.5718,267.4022,0,U,46916,999,2085,0,-.34E-5,0
LUCAS (JDRS-1),2020-089A,2026-07-06T19:37:51.807072,1.00273583,.0001877,0.0487,267.2158,187.9622,214.8681,0,U,47202,999,2061,0,-.221E-5,0
SXM-7,2020-096A,2026-07-06T20:13:54.900192,1.00270800,.000372,0.0213,101.8479,18.0171,23.2832,0,U,47240,999,764,0,-.19E-5,0
CMS-01,2020-099A,2026-07-06T19:19:15.139776,1.00270275,.0003335,0.0533,92.9669,177.2569,27.3570,0,U,47256,999,2039,0,-.149E-5,0
TURKSAT 5A,2021-001A,2026-07-06T19:04:25.237056,1.00270802,.0000065,0.0141,65.4644,161.5789,14.7608,0,U,47306,999,2016,0,.169E-5,0
TIANTONG-1 3,2021-003A,2026-07-06T21:01:30.726048,1.00272263,.000341,1.7416,340.4815,131.0424,210.2580,0,U,47321,999,2015,0,-.14E-5,0
TJS-6,2021-010A,2026-07-06T19:46:27.532128,1.00271221,.0003308,0.2025,262.4703,230.9144,266.4924,0,U,47613,999,2000,0,.58E-6,0
FENGYUN 4B,2021-047A,2026-07-06T15:57:36.194400,1.00267420,.00057576,0.1981,79.3967,275.5456,273.7876,0,U,48808,999,1876,0,-.315E-5,0
SXM-8,2021-049A,2026-07-06T03:30:34.442208,1.00271388,.00054,0.0143,28.6862,4.8539,218.0897,0,U,48838,999,1877,0,-.191E-5,0
TIANLIAN 1-05,2021-063A,2026-07-06T19:00:25.158240,1.00271219,.0000806,1.6411,80.5485,63.2193,82.9563,0,U,49011,999,1827,0,.122E-5,0
STAR ONE D2,2021-069A,2026-07-06T01:29:02.241600,1.00271730,.00023025,0.0141,12.7022,116.4930,107.0199,0,U,49055,999,1813,0,0,0
EUTELSAT QUANTUM,2021-069B,2026-07-06T19:09:09.264960,1.00273972,.0002412,0.0166,43.9169,64.0872,151.7754,0,U,49056,999,1812,0,.141E-5,0
ZHONGXING-2E,2021-071A,2026-07-06T20:32:39.671808,1.00271715,.0001883,0.0453,111.6642,38.5761,180.8338,0,U,49062,999,1823,0,-.277E-5,0
