ELEKTRO-L 3             
1 44903U 19095A   26187.87492340 -.00000082  00000+0  00000+0 0  9994
2 44903   0.3045  82.0815 0001561  13.1830 220.5522  1.00272085 23904
SHIJIAN-20 (SJ-20)      
1 44910U 19097A   26187.86877005  .00000147  00000+0  00000+0 0  9999
2 44910   4.9654  74.8234 0015624  58.4499 149.2296  1.00277456 23890
TJS-5                   
1 44978U 20002A   26187.88116344 -.00000327  00000+0  00000+0 0  9996
2 44978   0.0418  68.7420 0008101 346.7653 294.0821  1.00273081 23900
GSAT-30                 
1 45026U 20005A   26187.86612806 -.00000150  00000+0  00000+0 0  9990
2 45026   0.0269  94.1006 0003379 357.1251 228.4437  1.00270423 23703
EUTELSAT KONNECT        
1 45027U 20005B   26187.57611770  .00000064  00000+0  00000+0 0  9991
2 45027   0.0680  93.7943 0001974 136.3863 268.9939  1.00269005 24533
JCSAT-17                
1 45245U 20013A   26187.74425404 -.00000303  00000+0  00000+0 0  9995
2 45245   5.3917 357.0380 0003063 122.9216 208.7085  1.00270616 23422
GEO-KOMPSAT-2B          
1 45246U 20013B   26187.74269403 -.00000329  00000+0  00000+0 0  9999
2 45246   0.0428 212.9313 0000756  24.0071  83.4173  1.00271115 23470
BEIDOU-3 G2             
1 45344U 20017A   26187.87579008 -.00000127  00000+0  00000+0 0  9997
2 45344   2.9014  47.6135 0002459  51.8682 220.7363  1.00270817 23457
AEHF-6 (USA 298)        
1 45465U 20022B   26187.74160568 -.00000282  00000+0  00000+0 0  9992
2 45465   2.5073 301.3648 0041965  15.8126  12.2410  1.00275151 23216
BEIDOU-3 G3             
1 45807U 20040A   26187.81049638 -.00000340  00000+0  00000+0 0  9999
2 45807   2.4924  67.4782 0002170 334.6376 284.9927  1.00269061 22261
APSTAR-6D               
1 45863U 20045A   26187.74390735 -.00000302  00000+0  00000+0 0  9993
2 45863   0.0389  87.2015 0002053  11.0135 228.3677  1.00272245 22059
KOREASAT 116            
1 45920U 20048A   26187.81162303 -.00000347  00000+0  00000+0 0  9995
2 45920   0.0092 339.7503 0000954 120.6933 232.7594  1.00271607 21835
EXPRESS 103             
1 45985U 20053A   26187.87899676 -.00000266  00000+0  00000+0 0  9998
2 45985   0.0342 258.6784 0001666 221.0879 218.0297  1.00273472 21840
EXPRESS 80              
1 45986U 20053B   26186.98902023  .00000000  00000+0  00000+0 0  9996
2 45986   0.0185   1.2410 0001685 202.2448 156.5065  1.00270355 21822
BSAT-4B                 
1 46112U 20056A   26187.83159449  .00000000  00000+0  00000+0 0  9992
2 46112   0.0115 162.8355 0004194 328.7383 202.4326  1.00267324 21585
MEV-2                   
1 46113U 20056B   26187.36071100  .00000004  00000+0  00000+0 0  9992
2 46113   0.0428 259.5941 0000467 299.9477 213.6568  1.00274350 80900
GALAXY 30 (G-30)        
1 46114U 20056C   26187.76375412  .00000052  00000+0  00000+0 0  9993
2 46114   0.0206  38.7570 0002186  67.2773 328.6685  1.00270907 21484
GAOFEN-13 01            
1 46610U 20071A   26187.81214304 -.00000348  00000+0  00000+0 0  9998
2 46610   0.4455  86.3090 0045007 120.0621 129.0755  1.00270647 21112
TIANTONG-1 2            
1 46916U 20082A   26187.88463010 -.00000340  00000+0  00000+0 0  9998
2 46916   0.7675 330.3134 0001553 130.5718 267.4022  1.00271448 20854
LUCAS (JDRS-1)          
1 47202U 20089A   26187.81796073 -.00000221  00000+0  00000+0 0  9993
2 47202   0.0487 267.2158 0001877 187.9622 214.8681  1.00273583 20613
SXM-7                   
1 47240U 20096A   26187.84299653 -.00000190  00000+0  00000+0 0  9993
2 47240   0.0213 101.8479 0003720  18.0171  23.2832  1.00270800  7640
CMS-01                  
1 47256U 20099A   26187.80503634 -.00000149  00000+0  00000+0 0  9990
2 47256   0.0533  92.9669 0003335 177.2569  27.3570  1.00270275 20391
TURKSAT 5A              
1 47306U 21001A   26187.79473654  .00000169  00000+0  00000+0 0  9997
2 47306   0.0141  65.4644 0000065 161.5789  14.7608  1.00270802 20160
TIANTONG-1 3            
1 47321U 21003A   26187.87605007 -.00000140  00000+0  00000+0 0  9994
2 47321   1.7416 340.4815 0003410 131.0424 210.2580  1.00272263 20155
TJS-6                   
1 47613U 21010A   26187.82392977  .00000058  00000+0  00000+0 0  9997
2 47613   0.2025 262.4703 0003308 230.9144 266.4924  1.00271221 20004
FENGYUN 4B              
1 48808U 21047A   26187.66500225 -.00000315  00000+0  00000+0 0  9990
2 48808   0.1981  79.3967 0005757 275.5456 273.7876  1.00267420 18762
SXM-8                   
1 48838U 21049A   26187.14623197 -.00000191  00000+0  00000+0 0  9994
2 48838   0.0143  28.6862 0005400   4.8539 218.0897  1.00271388 18779
TIANLIAN 1-05           
1 49011U 21063A   26187.79195785  .00000122  00000+0  00000+0 0  9995
2 49011   1.6411  80.5485 0000806  63.2193  82.9563  1.00271219 18272
STAR ONE D2             
1 49055U 21069A   26187.06183150  .00000000  00000+0  00000+0 0  9997
2 49055   0.0141  12.7022 0002302 116.4930 107.0199  1.00271730 18137
EUTELSAT QUANTUM        
1 49056U 21069B   26187.79802390  .00000141  00000+0  00000+0 0  9998
2 49056   0.0166  43.9169 0002412  64.0872 151.7754  1.00273972 18120
ZHONGXING-2E            
1 49062U 21071A   26187.85601472 -.00000277  00000+0  00000+0 0  9994
2 49062   0.0453 111.6642 0001883  38.5761 180.8338  1.00271715 18235
